{
  "norad_id": 64069,
  "name": "STARLINK-11649 [DTC]",
  "history": [
    {
      "epoch": "2026-03-28T20:15:04.730400Z",
      "apogee_km": 360.3564854970218,
      "perigee_km": 352.56159465639485,
      "latitude_deg": -1.2944386065188382e-05,
      "longitude_deg": -146.63675161990074,
      "height_km": 354.4794383895533,
      "semi_major_axis_km": 6734.596040076708,
      "eccentricity": 0.00057872,
      "inclination_deg": 43.0014,
      "raan_deg": 343.3914,
      "arg_perigee_deg": 296.7567,
      "mean_anomaly_deg": 63.2708,
      "mean_motion_rev_day": 15.70852603
    },
    {
      "epoch": "2026-03-29T02:21:19.268352Z",
      "apogee_km": 357.79553734891215,
      "perigee_km": 354.8835496914926,
      "latitude_deg": 1.2883655905656708e-06,
      "longitude_deg": 120.01910479923318,
      "height_km": 355.9219191227662,
      "semi_major_axis_km": 6734.476543520202,
      "eccentricity": 0.0002162,
      "inclination_deg": 43.0012,
      "raan_deg": 341.8585,
      "arg_perigee_deg": 277.5304,
      "mean_anomaly_deg": 82.5318,
      "mean_motion_rev_day": 15.70894413
    },
    {
      "epoch": "2026-03-29T23:43:09.640992Z",
      "apogee_km": 357.8775232833823,
      "perigee_km": 354.943146318662,
      "latitude_deg": 2.2826283202054643e-05,
      "longitude_deg": 153.31655422895463,
      "height_km": 357.2916318222688,
      "semi_major_axis_km": 6734.547334801022,
      "eccentricity": 0.00021786,
      "inclination_deg": 42.998,
      "raan_deg": 336.4932,
      "arg_perigee_deg": 139.2882,
      "mean_anomaly_deg": 220.8149,
      "mean_motion_rev_day": 15.70869644
    },
    {
      "epoch": "2026-03-30T08:52:31.207296Z",
      "apogee_km": 358.48801732141783,
      "perigee_km": 353.94744598714806,
      "latitude_deg": -4.016780293103077e-05,
      "longitude_deg": 13.301404709150942,
      "height_km": 355.8975740922634,
      "semi_major_axis_km": 6734.354731654283,
      "eccentricity": 0.00033712,
      "inclination_deg": 42.9975,
      "raan_deg": 334.194,
      "arg_perigee_deg": 272.3655,
      "mean_anomaly_deg": 87.6826,
      "mean_motion_rev_day": 15.70937035
    },
    {
      "epoch": "2026-03-30T22:36:33.708384Z",
      "apogee_km": 357.51208817593306,
      "perigee_km": 355.0122791989479,
      "latitude_deg": 2.777742965088967e-05,
      "longitude_deg": 163.2773201367213,
      "height_km": 356.79968466142486,
      "semi_major_axis_km": 6734.39918368744,
      "eccentricity": 0.0001856,
      "inclination_deg": 42.9996,
      "raan_deg": 330.7443,
      "arg_perigee_deg": 232.2527,
      "mean_anomaly_deg": 127.8173,
      "mean_motion_rev_day": 15.70921481
    },
    {
      "epoch": "2026-03-31T01:39:40.766112Z",
      "apogee_km": 358.0482718527919,
      "perigee_km": 354.5128373249845,
      "latitude_deg": 2.646903609326247e-05,
      "longitude_deg": 116.60697214019768,
      "height_km": 356.5614787972011,
      "semi_major_axis_km": 6734.417554588888,
      "eccentricity": 0.00026249,
      "inclination_deg": 43.0019,
      "raan_deg": 329.9787,
      "arg_perigee_deg": 253.3159,
      "mean_anomaly_deg": 106.7421,
      "mean_motion_rev_day": 15.70915053
    },
    {
      "epoch": "2026-04-01T15:48:40.752864Z",
      "apogee_km": 357.5179931606972,
      "perigee_km": 355.1797796609353,
      "latitude_deg": 1.818752863998345e-05,
      "longitude_deg": -106.78884404502355,
      "height_km": 355.60816442107887,
      "semi_major_axis_km": 6734.4858864108155,
      "eccentricity": 0.0001736,
      "inclination_deg": 42.9983,
      "raan_deg": 320.3996,
      "arg_perigee_deg": 296.0367,
      "mean_anomaly_deg": 64.0322,
      "mean_motion_rev_day": 15.70891144
    },
    {
      "epoch": "2026-04-01T23:26:28.242528Z",
      "apogee_km": 358.03250878873496,
      "perigee_km": 354.54515371627804,
      "latitude_deg": -5.336590800519102e-06,
      "longitude_deg": 136.5315105174008,
      "height_km": 356.41367268638834,
      "semi_major_axis_km": 6734.425831252506,
      "eccentricity": 0.00025892,
      "inclination_deg": 43.0002,
      "raan_deg": 318.4812,
      "arg_perigee_deg": 258.3679,
      "mean_anomaly_deg": 101.6898,
      "mean_motion_rev_day": 15.70912157
    },
    {
      "epoch": "2026-04-03T15:07:01.423776Z",
      "apogee_km": 357.29718275831056,
      "perigee_km": 355.73743682016266,
      "latitude_deg": 1.073881612264346e-05,
      "longitude_deg": -110.20295750383805,
      "height_km": 356.6122071285239,
      "semi_major_axis_km": 6734.654309789236,
      "eccentricity": 0.0001158,
      "inclination_deg": 42.9983,
      "raan_deg": 308.5144,
      "arg_perigee_deg": 245.534,
      "mean_anomaly_deg": 114.5407,
      "mean_motion_rev_day": 15.70832216
    },
    {
      "epoch": "2026-04-04T14:00:25.038432Z",
      "apogee_km": 357.38968408192704,
      "perigee_km": 354.3553393959364,
      "latitude_deg": 2.34061527002576e-05,
      "longitude_deg": -100.24239347750176,
      "height_km": 356.65131565776977,
      "semi_major_axis_km": 6734.009511738931,
      "eccentricity": 0.0002253,
      "inclination_deg": 42.9974,
      "raan_deg": 302.7634,
      "arg_perigee_deg": 228.4353,
      "mean_anomaly_deg": 131.6322,
      "mean_motion_rev_day": 15.71057838
    },
    {
      "epoch": "2026-04-05T14:25:23.421792Z",
      "apogee_km": 357.6173086343042,
      "perigee_km": 355.0595548653255,
      "latitude_deg": -6.269881211584019e-06,
      "longitude_deg": -113.61982902325323,
      "height_km": 355.9802717710634,
      "semi_major_axis_km": 6734.475431749815,
      "eccentricity": 0.0001899,
      "inclination_deg": 42.9985,
      "raan_deg": 296.632,
      "arg_perigee_deg": 275.8722,
      "mean_anomaly_deg": 84.1929,
      "mean_motion_rev_day": 15.70894802
    },
    {
      "epoch": "2026-04-05T22:03:11.142144Z",
      "apogee_km": 357.42869724799675,
      "perigee_km": 355.15690469893616,
      "latitude_deg": 4.39334656790378e-05,
      "longitude_deg": 129.70333936914452,
      "height_km": 355.8629034570931,
      "semi_major_axis_km": 6734.429800973466,
      "eccentricity": 0.00016867,
      "inclination_deg": 42.9984,
      "raan_deg": 294.7173,
      "arg_perigee_deg": 280.2637,
      "mean_anomaly_deg": 79.8041,
      "mean_motion_rev_day": 15.70910768
    },
    {
      "epoch": "2026-04-07T13:43:43.938912Z",
      "apogee_km": 359.762587121817,
      "perigee_km": 353.31480860868123,
      "latitude_deg": 8.826127524647202e-06,
      "longitude_deg": -117.02788183090453,
      "height_km": 355.07511520774256,
      "semi_major_axis_km": 6734.675697865249,
      "eccentricity": 0.0004787,
      "inclination_deg": 42.999,
      "raan_deg": 284.7522,
      "arg_perigee_deg": 292.5821,
      "mean_anomaly_deg": 67.454,
      "mean_motion_rev_day": 15.70824733
    },
    {
      "epoch": "2026-04-07T13:43:43.939776Z",
      "apogee_km": 359.762587121817,
      "perigee_km": 353.31480860868123,
      "latitude_deg": 8.826127522928611e-06,
      "longitude_deg": -117.02788544076164,
      "height_km": 355.07511520774256,
      "semi_major_axis_km": 6734.675697865249,
      "eccentricity": 0.0004787,
      "inclination_deg": 42.999,
      "raan_deg": 284.7522,
      "arg_perigee_deg": 292.5821,
      "mean_anomaly_deg": 67.454,
      "mean_motion_rev_day": 15.70824733
    },
    {
      "epoch": "2026-04-08T15:40:14.933568Z",
      "apogee_km": 359.1719259679412,
      "perigee_km": 353.7726550075713,
      "latitude_deg": -8.451658244305426e-06,
      "longitude_deg": -153.73854566579007,
      "height_km": 355.5633805414708,
      "semi_major_axis_km": 6734.609290487756,
      "eccentricity": 0.00040086,
      "inclination_deg": 43.0024,
      "raan_deg": 278.2361,
      "arg_perigee_deg": 284.6632,
      "mean_anomaly_deg": 75.3791,
      "mean_motion_rev_day": 15.70847967
    },
    {
      "epoch": "2026-04-09T20:39:53.392032Z",
      "apogee_km": 357.55279205085117,
      "perigee_km": 353.87072355008695,
      "latitude_deg": -3.560022859780399e-05,
      "longitude_deg": 122.8799362709146,
      "height_km": 355.5366113027257,
      "semi_major_axis_km": 6733.848757800469,
      "eccentricity": 0.0002734,
      "inclination_deg": 42.9994,
      "raan_deg": 270.9556,
      "arg_perigee_deg": 268.3965,
      "mean_anomaly_deg": 91.6589,
      "mean_motion_rev_day": 15.71114096
    },
    {
      "epoch": "2026-04-10T04:17:42.014400Z",
      "apogee_km": 356.7119286160914,
      "perigee_km": 356.04521157465115,
      "latitude_deg": 3.194077878075634e-05,
      "longitude_deg": 6.198354197678499,
      "height_km": 355.82259801436663,
      "semi_major_axis_km": 6734.515570095371,
      "eccentricity": 4.95e-05,
      "inclination_deg": 42.9996,
      "raan_deg": 269.0399,
      "arg_perigee_deg": 11.1921,
      "mean_anomaly_deg": 348.8958,
      "mean_motion_rev_day": 15.70880758
    },
    {
      "epoch": "2026-04-11T19:58:14.437056Z",
      "apogee_km": 357.6449888225625,
      "perigee_km": 355.1532104656935,
      "latitude_deg": 8.490115823714875e-06,
      "longitude_deg": 119.46990954790104,
      "height_km": 356.23536878574953,
      "semi_major_axis_km": 6734.536099644128,
      "eccentricity": 0.000185,
      "inclination_deg": 42.9988,
      "raan_deg": 259.076,
      "arg_perigee_deg": 267.0733,
      "mean_anomaly_deg": 92.9923,
      "mean_motion_rev_day": 15.70873575
    },
    {
      "epoch": "2026-04-13T02:29:27.263328Z",
      "apogee_km": 356.91878535762316,
      "perigee_km": 355.9848325815956,
      "latitude_deg": -7.3624059612960185e-06,
      "longitude_deg": 12.745527844631555,
      "height_km": 355.877421942289,
      "semi_major_axis_km": 6734.588808969609,
      "eccentricity": 6.934e-05,
      "inclination_deg": 42.9984,
      "raan_deg": 251.4085,
      "arg_perigee_deg": 317.787,
      "mean_anomaly_deg": 42.2944,
      "mean_motion_rev_day": 15.70855133
    }
  ]
}